NORAD_CAT_ID,OBJECT_NAME,OBJECT_TYPE,EPOCH,MEAN_MOTION,ECCENTRICITY,INCLINATION,RA_OF_ASC_NODE,ARG_OF_PERICENTER,MEAN_ANOMALY,BSTAR,MEAN_MOTION_DOT,MEAN_MOTION_DDOT,TLE_LINE0,TLE_LINE1,TLE_LINE2,SEMIMAJOR_AXIS,PERIOD,APOGEE,PERIGEE,DECAYED
56467.0,STARLINK-6055,PAYLOAD,2024-07-17 10:24:11,14.98331955,0.0003384,69.9988,198.0377,270.2185,89.8586,9.3034e-06,1.8e-07,0.0,0 STARLINK-6055,1 56467U 23064V   24199.43346392  .00000018  00000-0  93034-5 0  9995,2 56467  69.9988 198.0377 0003384 270.2185  89.8586 14.98331955 65820,6950.187,96.107,574.404,569.7,0.0
56467.0,STARLINK-6055,PAYLOAD,2024-07-18 05:37:48,14.98330346,0.0003383,69.9988,196.0179,269.637,90.4402,-3.8003e-07,-9.8e-07,0.0,0 STARLINK-6055,1 56467U 23064V   24200.23458470 -.00000098  00000-0 -38003-6 0  9993,2 56467  69.9988 196.0179 0003383 269.6370  90.4402 14.98330346 66307,6950.192,96.107,574.408,569.706,0.0
56467.0,STARLINK-6055,PAYLOAD,2024-07-18 08:50:04,14.98330281,0.0003332,69.9989,195.6814,269.6035,90.4743,1.308e-05,6.3e-07,0.0,0 STARLINK-6055,1 56467U 23064V   24200.36810440  .00000063  00000-0  13080-4 0  9992,2 56467  69.9989 195.6814 0003332 269.6035  90.4743 14.98330281 65968,6950.192,96.107,574.373,569.741,0.0
56467.0,STARLINK-6055,PAYLOAD,2024-07-18 16:50:44,14.98330483,0.0003327,69.999,194.8398,269.64,90.4378,8.6985e-06,1.1e-07,0.0,0 STARLINK-6055,1 56467U 23064V   24200.70190420  .00000011  00000-0  86985-5 0  9997,2 56467  69.9990 194.8398 0003327 269.6400  90.4378 14.98330483 66013,6950.191,96.107,574.369,569.744,0.0
56467.0,STARLINK-6055,PAYLOAD,2024-07-19 08:52:05,14.98331053,0.0003294,69.9991,193.1565,268.734,91.3442,1.0583e-05,3.3e-07,0.0,0 STARLINK-6055,1 56467U 23064V   24201.36950328  .00000033  00000-0  10583-4 0  9995,2 56467  69.9991 193.1565 0003294 268.7340  91.3442 14.98331053 66474,6950.19,96.107,574.344,569.765,0.0
56467.0,STARLINK-6055,PAYLOAD,2024-07-19 16:52:45,14.98331052,0.0003314,69.9991,192.3148,269.2738,90.8041,5.6666e-06,-2.5e-07,0.0,0 STARLINK-6055,1 56467U 23064V   24201.70330292 -.00000025  00000-0  56666-5 0  9990,2 56467  69.9991 192.3148 0003314 269.2738  90.8041 14.98331052 66166,6950.19,96.107,574.358,569.751,0.0
56467.0,STARLINK-6055,PAYLOAD,2024-07-20 08:54:06,14.98330486,0.0003303,69.9991,190.6317,269.1427,90.9353,1.2566e-05,5.7e-07,0.0,0 STARLINK-6055,1 56467U 23064V   24202.37090302  .00000057  00000-0  12566-4 0  9993,2 56467  69.9991 190.6317 0003303 269.1427  90.9353 14.98330486 66625,6950.191,96.107,574.352,569.761,0.0
56467.0,STARLINK-6055,PAYLOAD,2024-07-20 16:54:46,14.98329386,0.0003279,69.9991,189.7896,269.3727,90.7056,-1.049e-05,-2.18e-06,0.0,0 STARLINK-6055,1 56467U 23064V   24202.70470427 -.00000218  00000-0 -10490-4 0  9995,2 56467  69.9991 189.7896 0003279 269.3727  90.7056 14.98329386 66314,6950.195,96.107,574.339,569.781,0.0
56467.0,STARLINK-6055,PAYLOAD,2024-07-21 08:56:07,14.98329472,0.000326,69.9991,188.1066,269.3507,90.7279,5.8707e-06,-2.3e-07,0.0,0 STARLINK-6055,1 56467U 23064V   24203.37230412 -.00000023  00000-0  58707-5 0  9994,2 56467  69.9991 188.1066 0003260 269.3507  90.7279 14.98329472 66775,6950.195,96.107,574.325,569.794,0.0
56467.0,STARLINK-6055,PAYLOAD,2024-07-22 08:58:07,14.9833268,0.0003254,69.9991,185.5819,269.4345,90.6441,4.3307e-05,4.24e-06,0.0,0 STARLINK-6055,1 56467U 23064V   24204.37370077  .00000424  00000-0  43307-4 0  9990,2 56467  69.9991 185.5819 0003254 269.4345  90.6441 14.98332680 66928,6950.185,96.107,574.311,569.788,0.0
56467.0,STARLINK-6055,PAYLOAD,2024-07-23 09:00:08,14.98334102,0.000312,69.9994,183.0582,267.7331,92.347,7.419e-05,7.92e-06,0.0,0 STARLINK-6055,1 56467U 23064V   24205.37509788  .00000792  00000-0  74190-4 0  9996,2 56467  69.9994 183.0582 0003120 267.7331  92.3470 14.98334102 67078,6950.18,96.107,574.214,569.877,0.0
56467.0,STARLINK-6055,PAYLOAD,2024-07-23 15:24:41,14.9832765,0.0003091,69.9995,182.3839,268.7682,91.3123,-1.6764e-05,-2.93e-06,0.0,0 STARLINK-6055,1 56467U 23064V   24205.64214403 -.00000293  00000-0 -16764-4 0  9994,2 56467  69.9995 182.3839 0003091 268.7682  91.3123 14.98327650 67112,6950.2,96.107,574.213,569.917,0.0
56467.0,STARLINK-6055,PAYLOAD,2024-07-23 21:49:13,14.98325808,0.0002848,70.0001,181.7111,267.144,92.9393,-3.2665e-05,-4.83e-06,0.0,0 STARLINK-6055,1 56467U 23064V   24205.90918625 -.00000483  00000-0 -32665-4 0  9999,2 56467  70.0001 181.7111 0002848 267.1440  92.9393 14.98325808 66795,6950.206,96.107,574.05,570.091,0.0
56467.0,STARLINK-6055,PAYLOAD,2024-07-24 09:02:10,14.98324503,0.0002906,69.9998,180.5329,265.6037,94.479,-4.8875e-05,-6.76e-06,0.0,0 STARLINK-6055,1 56467U 23064V   24206.37650857 -.00000676  00000-0 -48875-4 0  9995,2 56467  69.9998 180.5329 0002906 265.6037  94.4790 14.98324503 66862,6950.21,96.107,574.095,570.055,0.0
56467.0,STARLINK-6055,PAYLOAD,2024-07-25 04:15:46,14.98335282,0.0003011,69.9995,178.5133,267.732,92.3494,1.2207e-05,5.3e-07,0.0,0 STARLINK-6055,1 56467U 23064V   24207.17761913  .00000053  00000-0  12207-4 0  9997,2 56467  69.9995 178.5133 0003011 267.7320  92.3494 14.98335282 67343,6950.177,96.107,574.134,569.949,0.0
56467.0,STARLINK-6055,PAYLOAD,2024-07-25 05:51:54,14.98336964,0.0002987,69.9995,178.3449,267.6,92.4817,3.2561e-05,2.96e-06,0.0,0 STARLINK-6055,1 56467U 23064V   24207.24437723  .00000296  00000-0  32561-4 0  9998,2 56467  69.9995 178.3449 0002987 267.6000  92.4817 14.98336964 66994,6950.171,96.107,574.112,569.96,0.0
56467.0,STARLINK-6055,PAYLOAD,2024-07-25 21:53:15,14.98322756,0.0002998,69.9995,176.6619,269.7413,90.3402,9.5539e-06,2.1e-07,0.0,0 STARLINK-6055,1 56467U 23064V   24207.91198629  .00000021  00000-0  95539-5 0  9992,2 56467  69.9995 176.6619 0002998 269.7413  90.3402 14.98322756 67090,6950.215,96.107,574.164,569.997,0.0
56467.0,STARLINK-6055,PAYLOAD,2024-07-26 04:17:47,14.98328878,0.0002709,70.0011,175.9905,261.1997,98.8856,8.7165e-05,9.47e-06,0.0,0 STARLINK-6055,1 56467U 23064V   24208.17902026  .00000947  00000-0  87165-4 0  9997,2 56467  70.0011 175.9905 0002709 261.1997  98.8856 14.98328878 67496,6950.196,96.107,573.944,570.179,0.0
56467.0,STARLINK-6055,PAYLOAD,2024-07-26 07:30:03,14.98333624,0.0002664,70.0013,175.6548,261.2333,98.8525,0.00014886,1.684e-05,0.0,0 STARLINK-6055,1 56467U 23064V   24208.31253535  .00001684  00000-0  14886-3 0  9995,2 56467  70.0013 175.6548 0002664 261.2333  98.8525 14.98333624 67154,6950.182,96.107,573.898,570.195,0.0
56467.0,STARLINK-6055,PAYLOAD,2024-07-26 15:30:43,14.98336899,0.0003345,69.9987,174.809,274.9815,85.0962,5.6139e-05,5.77e-06,0.0,0 STARLINK-6055,1 56467U 23064V   24208.64633321  .00000577  00000-0  56139-4 0  9994,2 56467  69.9987 174.8090 0003345 274.9815  85.0962 14.98336899 67562,6950.172,96.107,574.361,569.712,0.0
56467.0,STARLINK-6055,PAYLOAD,2024-07-26 21:55:15,14.98330024,0.0002646,70.0004,174.1345,263.2795,96.8063,3.813e-05,3.62e-06,0.0,0 STARLINK-6055,1 56467U 23064V   24208.91337775  .00000362  00000-0  38130-4 0  9991,2 56467  70.0004 174.1345 0002646 263.2795  96.8063 14.98330024 67243,6950.193,96.107,573.897,570.219,0.0
56467.0,STARLINK-6055,PAYLOAD,2024-07-27 04:19:48,14.98330738,0.0002758,70.0003,173.4627,267.8578,92.2265,-5.3601e-05,-7.32e-06,0.0,0 STARLINK-6055,1 56467U 23064V   24209.18042003 -.00000732  00000-0 -53601-4 0  9991,2 56467  70.0003 173.4627 0002758 267.8578  92.2265 14.98330738 67640,6950.191,96.107,573.972,570.139,0.0
56467.0,STARLINK-6055,PAYLOAD,2024-07-27 05:55:56,14.98327892,0.0002859,70.0001,173.2949,269.7335,90.3497,-3.238e-05,-4.79e-06,0.0,0 STARLINK-6055,1 56467U 23064V   24209.24718128 -.00000479  00000-0 -32380-4 0  9995,2 56467  70.0001 173.2949 0002859 269.7335  90.3497 14.98327892 67291,6950.199,96.107,574.051,570.077,0.0
56467.0,STARLINK-6055,PAYLOAD,2024-07-27 21:57:17,14.98323303,0.0002808,70.0009,171.6116,272.1662,87.9176,9.8141e-06,2.4e-07,0.0,0 STARLINK-6055,1 56467U 23064V   24209.91478356  .00000024  00000-0  98141-5 0  9997,2 56467  70.0009 171.6116 0002808 272.1662  87.9176 14.98323303 67392,6950.214,96.107,574.03,570.127,0.0
56467.0,STARLINK-6055,PAYLOAD,2024-07-28 04:21:49,14.9832695,0.0002729,69.9999,170.9385,268.5816,91.503,-3.1562e-05,-4.69e-06,0.0,0 STARLINK-6055,1 56467U 23064V   24210.18182317 -.00000469  00000-0 -31562-4 0  9995,2 56467  69.9999 170.9385 0002729 268.5816  91.5030 14.98326950 67794,6950.202,96.107,573.964,570.171,0.0
56467.0,STARLINK-6055,PAYLOAD,2024-07-28 21:59:18,14.98324451,0.0002866,70.0,169.087,272.9647,87.1184,-8.4624e-06,-1.94e-06,0.0,0 STARLINK-6055,1 56467U 23064V   24210.91618429 -.00000194  00000-0 -84624-5 0  9997,2 56467  70.0000 169.0870 0002866 272.9647  87.1184 14.98324451 67549,6950.21,96.107,574.067,570.083,0.0
56467.0,STARLINK-6055,PAYLOAD,2024-07-29 04:23:50,14.98326309,0.0002837,70.0,168.414,272.7595,87.3239,1.914e-05,1.35e-06,0.0,0 STARLINK-6055,1 56467U 23064V   24211.18322322  .00000135  00000-0  19140-4 0  9994,2 56467  70.0000 168.4140 0002837 272.7595  87.3239 14.98326309 67941,6950.204,96.107,574.041,570.098,0.0
56467.0,STARLINK-6055,PAYLOAD,2024-07-29 14:00:38,14.98327396,0.0002822,70.0001,167.4041,273.0727,87.0109,4.0484e-05,3.9e-06,0.0,0 STARLINK-6055,1 56467U 23064V   24211.58378268  .00000390  00000-0  40484-4 0  9996,2 56467  70.0001 167.4041 0002822 273.0727  87.0109 14.98327396 67643,6950.201,96.107,574.027,570.105,0.0
56467.0,STARLINK-6055,PAYLOAD,2024-07-29 22:01:19,14.98328939,0.0002869,69.9998,166.5625,271.0804,89.0027,6.0581e-05,6.3e-06,0.0,0 STARLINK-6055,1 56467U 23064V   24211.91758135  .00000630  00000-0  60581-4 0  9995,2 56467  69.9998 166.5625 0002869 271.0804  89.0027 14.98328939 67698,6950.196,96.107,574.055,570.067,0.0
56467.0,STARLINK-6055,PAYLOAD,2024-07-30 04:25:51,14.98330913,0.000283,69.9999,165.8896,269.5196,90.5639,8.2663e-05,8.93e-06,0.0,0 STARLINK-6055,1 56467U 23064V   24212.18461946  .00000893  00000-0  82663-4 0  9992,2 56467  69.9999 165.8896 0002830 269.5196  90.5639 14.98330913 68091,6950.19,96.107,574.022,570.088,0.0
